ONEWEB-0236             
1 48797U 21045AG  26185.44085416 -.00000008  00000+0 -55089-4 0  9991
2 48797  87.8992 255.7688 0002128  97.3289 262.8084 13.15548084246520
ONEWEB-0248             
1 48798U 21045AH  26185.45352693  .00000023  00000+0  28255-4 0  9997
2 48798  87.9004 255.7518 0002237 111.7844 248.3525 13.15549028246682
ONEWEB-0225             
1 48799U 21045AJ  26185.47571129  .00000071  00000+0  15485-3 0  9990
2 48799  87.8997 255.7547 0001936 115.9599 244.1731 13.15547964246694
ONEWEB-0215             
1 48800U 21045AK  26185.44560324 -.00000020  00000+0 -88225-4 0  9994
2 48800  87.9005 255.7440 0002100 118.2120 241.9223 13.15549512246568
ONEWEB-0216             
1 48801U 21045AL  26185.60722559 -.00000042  00000+0 -14584-3 0  9993
2 48801  87.9002 255.7264 0002007  97.9778 262.1580 13.15547962246599
ONEWEB-0239             
1 48802U 21045AM  26185.61197863 -.00000070  00000+0 -21909-3 0  9999
2 48802  87.8991 255.7301 0002381 119.2846 240.8523 13.15547541246635
ONEWEB-0249             
1 48967U 21060A   26185.53217376 -.00000035  00000+0 -12510-3 0  9990
2 48967  87.9084 225.3333 0002113  98.0244 262.1127 13.16596645241898
ONEWEB-0250             
1 48968U 21060B   26185.51417924  .00000023  00000+0  22832-4 0  9994
2 48968  87.9081 223.0370 0003100  96.4873 263.6616 13.25835153242518
ONEWEB-0252             
1 48970U 21060D   26185.56307120  .00000109  00000+0  25102-3 0  9995
2 48970  87.9083 225.3192 0001827  93.9731 266.1609 13.16594828241946
ONEWEB-0253             
1 48971U 21060E   26185.39999508  .00000172  00000+0  41729-3 0  9997
2 48971  87.9085 225.3572 0002175  97.0954 263.0425 13.16595380241856
ONEWEB-0254             
1 48972U 21060F   26185.56148558  .00000109  00000+0  25212-3 0  9997
2 48972  87.9084 225.3229 0002163 103.2917 256.8455 13.16593668241873
ONEWEB-0255             
1 48973U 21060G   26185.37149159  .00000000  00000+0 -34860-4 0  9996
2 48973  87.9088 225.3672 0002084 100.4769 259.6597 13.16593552241922
ONEWEB-0256             
1 48974U 21060H   26185.39761968  .00000093  00000+0  20953-3 0  9995
2 48974  87.9076 225.3650 0001993  92.0562 268.0797 13.16593943241897
ONEWEB-0257             
1 48975U 21060J   26185.50606800 -.00000015  00000+0 -73707-4 0  9994
2 48975  87.9083 225.3315 0001994  98.0925 262.0433 13.16593020241868
ONEWEB-0258             
1 48976U 21060K   26185.50765383  .00000025  00000+0  31873-4 0  9994
2 48976  87.9081 225.3433 0002123  95.8426 264.2947 13.16593432241876
ONEWEB-0259             
1 48977U 21060L   26185.34932464  .00000106  00000+0  24307-3 0  9996
2 48977  87.9085 225.3736 0002206  98.9623 261.1757 13.16594216241889
ONEWEB-0260             
1 48978U 21060M   26185.34061154  .00000097  00000+0  22092-3 0  9994
2 48978  87.9081 225.3762 0001724  88.5956 271.5373 13.16595623241863
ONEWEB-0261             
1 48979U 21060N   26185.38653487  .00000029  00000+0  41962-4 0  9998
2 48979  87.9079 225.3677 0001898 103.5168 256.6174 13.16593255241920
ONEWEB-0262             
1 48980U 21060P   26185.36673990  .00000013  00000+0 -23614-6 0  9999
2 48980  87.9086 225.3581 0002317 100.2324 259.9069 13.16593774241889
ONEWEB-0263             
1 48981U 21060Q   26185.39840325  .00000151  00000+0  36008-3 0  9991
2 48981  87.9085 225.3634 0001993 104.7618 255.3734 13.16593699241854
ONEWEB-0264             
1 48982U 21060R   26185.51159695 -.00000054  00000+0 -17597-3 0  9995
2 48982  87.9078 225.3437 0001834  97.3948 262.7391 13.16596935241874
ONEWEB-0266             
1 48984U 21060T   26185.53298549 -.00000051  00000+0 -16722-3 0  9997
2 48984  87.9083 225.3304 0002150  93.9838 266.1539 13.16595085241863
ONEWEB-0267             
1 48985U 21060U   26185.54406771  .00000116  00000+0  27003-3 0  9991
2 48985  87.9082 225.3248 0001918 100.4535 259.6812 13.16593691241872
ONEWEB-0268             
1 48986U 21060V   26185.36040511 -.00000015  00000+0 -73134-4 0  9995
2 48986  87.9085 225.3707 0001964  92.8373 267.2983 13.16593161242115
ONEWEB-0269             
1 48987U 21060W   26185.34140720  .00000130  00000+0  30544-3 0  9990
2 48987  87.9077 225.3755 0002038  89.1221 271.0143 13.16594316241881
ONEWEB-0270             
1 48988U 21060X   26185.35882615 -.00000030  00000+0 -11261-3 0  9994
2 48988  87.9083 225.3730 0002180 105.1904 254.9469 13.16593745241928
ONEWEB-0271             
1 48989U 21060Y   26185.34616056  .00000118  00000+0  27540-3 0  9990
2 48989  87.9086 225.3649 0002006 102.0220 258.1136 13.16594184241920
ONEWEB-0272             
1 48990U 21060Z   26185.36833333 -.00000090  00000+0 -27022-3 0  9999
2 48990  87.9076 225.3720 0001729  94.7894 265.3434 13.16594731241879
ONEWEB-0273             
1 48991U 21060AA  26185.39048890 -.00000012  00000+0 -66143-4 0  9991
2 48991  87.9081 225.3676 0002059  99.5148 260.6215 13.16593089241856
ONEWEB-0274             
1 48992U 21060AB  26185.33982269  .00000111  00000+0  25776-3 0  9997
2 48992  87.9075 225.3784 0001771  91.5470 268.5864 13.16595437241889
