OBJECT_NAME,OBJECT_ID,EPOCH,MEAN_MOTION,ECCENTRICITY,INCLINATION,RA_OF_ASC_NODE,ARG_OF_PERICENTER,MEAN_ANOMALY,EPHEMERIS_TYPE,CLASSIFICATION_TYPE,NORAD_CAT_ID,ELEMENT_SET_NO,REV_AT_EPOCH,BSTAR,MEAN_MOTION_DOT,MEAN_MOTION_DDOT
ONEWEB-0236,2021-045AG,2026-07-04T10:34:49.799424,13.15548084,.00021286,87.8992,255.7688,97.3289,262.8084,0,U,48797,999,24652,-.5508866E-4,-.8E-7,0
ONEWEB-0248,2021-045AH,2026-07-04T10:53:04.726752,13.15549028,.00022371,87.9004,255.7518,111.7844,248.3525,0,U,48798,999,24668,.2825475E-4,.23E-6,0
ONEWEB-0225,2021-045AJ,2026-07-04T11:25:01.455456,13.15547964,.00019363,87.8997,255.7547,115.9599,244.1731,0,U,48799,999,24669,.15484779E-3,.71E-6,0
ONEWEB-0215,2021-045AK,2026-07-04T10:41:40.119936,13.15549512,.00021009,87.9005,255.7440,118.2120,241.9223,0,U,48800,999,24656,-.88225135E-4,-.2E-6,0
ONEWEB-0216,2021-045AL,2026-07-04T14:34:24.290976,13.15547962,.00020073,87.9002,255.7264,97.9778,262.1580,0,U,48801,999,24659,-.14584384E-3,-.42E-6,0
ONEWEB-0239,2021-045AM,2026-07-04T14:41:14.953632,13.15547541,.00023812,87.8991,255.7301,119.2846,240.8523,0,U,48802,999,24663,-.21908936E-3,-.7E-6,0
ONEWEB-0249,2021-060A,2026-07-04T12:46:19.812864,13.16596645,.00021133,87.9084,225.3333,98.0244,262.1127,0,U,48967,999,24189,-.12509816E-3,-.35E-6,0
ONEWEB-0250,2021-060B,2026-07-04T12:20:25.086336,13.25835153,.00031004,87.9081,223.0370,96.4873,263.6616,0,U,48968,999,24251,.22831624E-4,.23E-6,0
ONEWEB-0252,2021-060D,2026-07-04T13:30:49.351680,13.16594828,.00018278,87.9083,225.3192,93.9731,266.1609,0,U,48970,999,24194,.25101554E-3,.109E-5,0
ONEWEB-0253,2021-060E,2026-07-04T09:35:59.574912,13.16595380,.00021756,87.9085,225.3572,97.0954,263.0425,0,U,48971,999,24185,.41729477E-3,.172E-5,0
ONEWEB-0254,2021-060F,2026-07-04T13:28:32.354112,13.16593668,.0002163,87.9084,225.3229,103.2917,256.8455,0,U,48972,999,24187,.25212147E-3,.109E-5,0
ONEWEB-0255,2021-060G,2026-07-04T08:54:56.873376,13.16593552,.00020849,87.9088,225.3672,100.4769,259.6597,0,U,48973,999,24192,-.34859793E-4,0,0
ONEWEB-0256,2021-060H,2026-07-04T09:32:34.340352,13.16593943,.00019935,87.9076,225.3650,92.0562,268.0797,0,U,48974,999,24189,.20952581E-3,.93E-6,0
ONEWEB-0257,2021-060J,2026-07-04T12:08:44.275200,13.16593020,.00019949,87.9083,225.3315,98.0925,262.0433,0,U,48975,999,24186,-.7370655E-4,-.15E-6,0
ONEWEB-0258,2021-060K,2026-07-04T12:11:01.290912,13.16593432,.00021231,87.9081,225.3433,95.8426,264.2947,0,U,48976,999,24187,.31872733E-4,.25E-6,0
ONEWEB-0259,2021-060L,2026-07-04T08:23:01.648896,13.16594216,.0002206,87.9085,225.3736,98.9623,261.1757,0,U,48977,999,24188,.24307341E-3,.106E-5,0
ONEWEB-0260,2021-060M,2026-07-04T08:10:28.837056,13.16595623,.0001724,87.9081,225.3762,88.5956,271.5373,0,U,48978,999,24186,.22091894E-3,.97E-6,0
ONEWEB-0261,2021-060N,2026-07-04T09:16:36.612768,13.16593255,.00018989,87.9079,225.3677,103.5168,256.6174,0,U,48979,999,24192,.41962288E-4,.29E-6,0
ONEWEB-0262,2021-060P,2026-07-04T08:48:06.327360,13.16593774,.00023179,87.9086,225.3581,100.2324,259.9069,0,U,48980,999,24188,-.236139E-6,.13E-6,0
ONEWEB-0263,2021-060Q,2026-07-04T09:33:42.040800,13.16593699,.00019934,87.9085,225.3634,104.7618,255.3734,0,U,48981,999,24185,.36007647E-3,.151E-5,0
ONEWEB-0264,2021-060R,2026-07-04T12:16:41.976480,13.16596935,.00018348,87.9078,225.3437,97.3948,262.7391,0,U,48982,999,24187,-.17596944E-3,-.54E-6,0
ONEWEB-0266,2021-060T,2026-07-04T12:47:29.946336,13.16595085,.00021503,87.9083,225.3304,93.9838,266.1539,0,U,48984,999,24186,-.1672213E-3,-.51E-6,0
ONEWEB-0267,2021-060U,2026-07-04T13:03:27.450144,13.16593691,.00019188,87.9082,225.3248,100.4535,259.6812,0,U,48985,999,24187,.27003149E-3,.116E-5,0
ONEWEB-0268,2021-060V,2026-07-04T08:38:59.001504,13.16593161,.00019645,87.9085,225.3707,92.8373,267.2983,0,U,48986,999,24211,-.73134071E-4,-.15E-6,0
ONEWEB-0269,2021-060W,2026-07-04T08:11:37.582080,13.16594316,.0002038,87.9077,225.3755,89.1221,271.0143,0,U,48987,999,24188,.30544357E-3,.13E-5,0
ONEWEB-0270,2021-060X,2026-07-04T08:36:42.579360,13.16593745,.00021801,87.9083,225.3730,105.1904,254.9469,0,U,48988,999,24192,-.11260632E-3,-.3E-6,0
ONEWEB-0271,2021-060Y,2026-07-04T08:18:28.272384,13.16594184,.00020063,87.9086,225.3649,102.0220,258.1136,0,U,48989,999,24192,.2754038E-3,.118E-5,0
ONEWEB-0272,2021-060Z,2026-07-04T08:50:23.999712,13.16594731,.00017294,87.9076,225.3720,94.7894,265.3434,0,U,48990,999,24187,-.27022444E-3,-.9E-6,0
ONEWEB-0273,2021-060AA,2026-07-04T09:22:18.240960,13.16593089,.00020595,87.9081,225.3676,99.5148,260.6215,0,U,48991,999,24185,-.66143369E-4,-.12E-6,0
ONEWEB-0274,2021-060AB,2026-07-04T08:09:20.680416,13.16595437,.00017716,87.9075,225.3784,91.5470,268.5864,0,U,48992,999,24188,.25776156E-3,.111E-5,0
